[{"OBJECT_NAME":"STARLINK-35149","OBJECT_ID":"2025-198W","EPOCH":"2026-03-09T19:31:25.796928","MEAN_MOTION":15.3019221,"ECCENTRICITY":0.00012723,"INCLINATION":53.1592,"RA_OF_ASC_NODE":270.0933,"ARG_OF_PERICENTER":58.2526,"MEAN_ANOMALY":301.8598,"EPHEMERIS_TYPE":0,"CLASSIFICATION_TYPE":"U","NORAD_CAT_ID":65512,"ELEMENT_SET_NO":999,"REV_AT_EPOCH":2864,"BSTAR":0.0004613106,"MEAN_MOTION_DOT":0.00013325,"MEAN_MOTION_DDOT":0},{"OBJECT_NAME":"COSMOS 1975","OBJECT_ID":"1988-093A","EPOCH":"2026-03-09T14:15:08.474112","MEAN_MOTION":15.28069249,"ECCENTRICITY":0.0012117,"INCLINATION":82.5181,"RA_OF_ASC_NODE":117.7814,"ARG_OF_PERICENTER":163.8427,"MEAN_ANOMALY":196.3201,"EPHEMERIS_TYPE":0,"CLASSIFICATION_TYPE":"U","NORAD_CAT_ID":19573,"ELEMENT_SET_NO":999,"REV_AT_EPOCH":1939,"BSTAR":0.0002787,"MEAN_MOTION_DOT":7.676e-5,"MEAN_MOTION_DDOT":0}]
